OBJECT_NAME,OBJECT_ID,EPOCH,MEAN_MOTION,ECCENTRICITY,INCLINATION,RA_OF_ASC_NODE,ARG_OF_PERICENTER,MEAN_ANOMALY,EPHEMERIS_TYPE,CLASSIFICATION_TYPE,NORAD_CAT_ID,ELEMENT_SET_NO,REV_AT_EPOCH,BSTAR,MEAN_MOTION_DOT,MEAN_MOTION_DDOT
STARLINK-37243,2026-073G,2026-07-07T00:15:28.343808,15.33434631,.00015523,97.2864,27.1264,98.8721,261.2698,0,U,68608,999,1417,.45936653E-3,.14779E-3,0
STARLINK-37250,2026-073H,2026-07-06T22:06:16.412256,15.33419192,.00015518,97.2867,26.9409,100.2305,259.9113,0,U,68609,999,1415,.40594054E-3,.13042E-3,0
STARLINK-37105,2026-073J,2026-07-07T06:23:31.412256,15.33433941,.00021081,97.2874,27.3874,89.9747,270.1737,0,U,68610,999,1421,.50706103E-3,.16325E-3,0
STARLINK-37177,2026-073K,2026-07-06T13:29:26.636640,15.33418119,.0001477,97.2862,26.6654,93.2400,266.9012,0,U,68611,999,1410,.65679862E-3,.21171E-3,0
STARLINK-36386,2026-073L,2026-07-07T11:48:29.498112,15.33437109,.00010499,97.2866,27.5411,92.8813,267.2550,0,U,68612,999,1424,.41027167E-3,.1319E-3,0
STARLINK-36187,2026-073M,2026-07-06T23:44:09.529152,15.33425902,.00017285,97.2863,27.1517,83.8322,276.3117,0,U,68613,999,1417,.45000704E-3,.14472E-3,0
STARLINK-37170,2026-073N,2026-07-07T11:21:05.436576,15.33431061,.0001796,97.2866,27.5664,99.6926,260.4520,0,U,68614,999,1424,.29587792E-3,.9485E-4,0
STARLINK-37176,2026-073P,2026-07-07T10:53:41.170272,15.33433665,.00019409,97.2866,27.5933,91.9835,268.1630,0,U,68615,999,1424,.40382316E-3,.1298E-3,0
STARLINK-37152,2026-073Q,2026-07-07T00:19:23.554848,15.33431346,.00015513,97.2879,27.1186,99.7842,260.3576,0,U,68616,999,1417,.50286952E-3,.16187E-3,0
STARLINK-37186,2026-073R,2026-07-06T23:28:29.311392,15.33439326,.0001909,97.2868,27.0158,95.6139,264.5322,0,U,68617,999,1416,.59625503E-3,.1922E-3,0
STARLINK-37179,2026-073S,2026-07-06T13:13:47.018496,15.33413579,.00020441,97.2862,26.6757,100.5387,259.6086,0,U,68618,999,1410,.43916784E-3,.14116E-3,0
STARLINK-37226,2026-073T,2026-07-07T09:58:50.340288,15.33407815,.00014228,97.2864,27.4917,82.1472,277.9932,0,U,68619,999,1423,.35615225E-3,.11427E-3,0
STARLINK-37211,2026-073U,2026-07-06T23:48:04.906944,15.33431712,.00011422,97.2871,27.1510,100.2017,259.9354,0,U,68620,999,1417,.41198412E-3,.13243E-3,0
STARLINK-37269,2026-073V,2026-07-07T11:40:38.777088,15.33502312,.00021735,97.2862,27.5457,80.6210,279.5278,0,U,68621,999,1424,.67683876E-3,.2188E-3,0
STARLINK-37252,2026-073W,2026-07-07T11:44:35.553696,15.33427360,.00013236,97.2874,27.5447,83.8953,276.2440,0,U,68622,999,1424,.44067823E-3,.14171E-3,0
STARLINK-37284,2026-073X,2026-07-07T11:52:24.336768,15.33440432,.00015765,97.2869,27.5398,97.4107,262.7315,0,U,68623,999,1424,.4111112E-3,.13219E-3,0
STARLINK-37231,2026-073Y,2026-07-06T13:33:21.635136,15.33415680,.00017063,97.2859,26.6575,91.3272,268.8166,0,U,68624,999,1410,.43543198E-3,.13996E-3,0
STARLINK-37249,2026-073Z,2026-07-07T00:03:44.367840,15.33419653,.00015192,97.2868,27.1354,96.8698,263.2718,0,U,68625,999,1417,.41036412E-3,.13186E-3,0
STARLINK-37285,2026-073AA,2026-07-06T12:40:40.437984,15.33415289,.00014012,97.2868,27.4699,90.0790,270.0613,0,U,68626,999,1415,.67584512E-3,.21786E-3,0
STP-S29A OBJECT A,2026-074A,2026-07-07T06:26:54.920544,15.24540546,.00306976,60.0171,101.3427,33.7875,326.5154,0,U,68627,999,1384,.26666878E-3,.6415E-4,0
MISR-C-1,2026-074B,2026-07-07T04:41:41.593056,15.24657846,.00291596,60.0218,101.6148,34.8427,325.4555,0,U,68628,999,1382,.3286007E-3,.7995E-4,0
RAWHIDE-1,2026-074C,2026-07-07T04:04:11.044992,15.24634346,.00329734,60.0205,101.4640,38.8638,321.4805,0,U,68629,999,1383,.47511371E-4,.9E-5,0
STPSAT-7,2026-074D,2026-07-06T23:16:30.393408,15.24849660,.00310663,60.0214,102.2087,41.4643,318.8787,0,U,68630,999,1379,.22837613E-3,.5505E-4,0
STP-S29A OBJECT E,2026-074E,2026-07-07T05:39:31.550976,15.24711220,.00316841,60.0207,101.2130,41.9440,318.4059,0,U,68631,999,1384,.16829139E-3,.3961E-4,0
RAWHIDE-2,2026-074F,2026-07-07T06:03:17.500032,15.25361733,.00315488,60.0300,100.8195,43.4976,316.8585,0,U,68632,999,1384,.84573374E-4,.1881E-4,0
MISR-C-2,2026-074G,2026-07-07T06:57:08.739936,15.26459098,.00319148,60.0216,100.3199,47.8542,312.5243,0,U,68633,999,1385,.3631958E-3,.9399E-4,0
AGGIESAT6 (AGS6),2026-074H,2026-07-07T03:18:33.356448,15.26803391,.00322695,60.0203,100.7074,50.0864,310.3045,0,U,68634,999,1384,.28443801E-3,.7374E-4,0
CANVAS,2026-074J,2026-07-07T06:38:00.483936,15.25707174,.00328651,60.0229,100.8571,40.6734,319.6792,0,U,68635,999,1385,.39023218E-3,.9898E-4,0
QIANFAN-109,2026-075A,2026-07-07T14:01:41.634624,13.51013356,.00020378,88.9910,318.9283,116.4863,243.6498,0,U,68636,999,1254,.1273522E-3,.94E-6,0
QIANFAN-110,2026-075B,2026-07-07T12:26:51.341856,13.51014566,.00019977,88.9910,318.9564,101.1244,259.0132,0,U,68637,999,1253,.11192776E-3,.84E-6,0
