STARLINK-37243          
1 68608U 26073G   26188.01074472  .00014779  00000+0  45937-3 0  9994
2 68608  97.2864  27.1264 0001552  98.8721 261.2698 15.33434631 14176
STARLINK-37250          
1 68609U 26073H   26187.92102329  .00013042  00000+0  40594-3 0  9993
2 68609  97.2867  26.9409 0001551 100.2305 259.9113 15.33419192 14152
STARLINK-37105          
1 68610U 26073J   26188.26633579  .00016325  00000+0  50706-3 0  9992
2 68610  97.2874  27.3874 0002108  89.9747 270.1737 15.33433941 14217
STARLINK-37177          
1 68611U 26073K   26187.56211385  .00021171  00000+0  65680-3 0  9994
2 68611  97.2862  26.6654 0001477  93.2400 266.9012 15.33418119 14102
STARLINK-36386          
1 68612U 26073L   26188.49200808  .00013190  00000+0  41027-3 0  9997
2 68612  97.2866  27.5411 0001049  92.8813 267.2550 15.33437109 14242
STARLINK-36187          
1 68613U 26073M   26187.98899918  .00014472  00000+0  45001-3 0  9997
2 68613  97.2863  27.1517 0001728  83.8322 276.3117 15.33425902 14172
STARLINK-37170          
1 68614U 26073N   26188.47297959  .00009485  00000+0  29588-3 0  9990
2 68614  97.2866  27.5664 0001796  99.6926 260.4520 15.33431061 14246
STARLINK-37176          
1 68615U 26073P   26188.45394873  .00012980  00000+0  40382-3 0  9991
2 68615  97.2866  27.5933 0001940  91.9835 268.1630 15.33433665 14240
STARLINK-37152          
1 68616U 26073Q   26188.01346707  .00016187  00000+0  50287-3 0  9995
2 68616  97.2879  27.1186 0001551  99.7842 260.3576 15.33431346 14172
STARLINK-37186          
1 68617U 26073R   26187.97811703  .00019220  00000+0  59626-3 0  9990
2 68617  97.2868  27.0158 0001909  95.6139 264.5322 15.33439326 14160
STARLINK-37179          
1 68618U 26073S   26187.55123864  .00014116  00000+0  43917-3 0  9994
2 68618  97.2862  26.6757 0002044 100.5387 259.6086 15.33413579 14105
STARLINK-37226          
1 68619U 26073T   26188.41586042  .00011427  00000+0  35615-3 0  9990
2 68619  97.2864  27.4917 0001422  82.1472 277.9932 15.33407815 14237
STARLINK-37211          
1 68620U 26073U   26187.99172346  .00013243  00000+0  41198-3 0  9993
2 68620  97.2871  27.1510 0001142 100.2017 259.9354 15.33431712 14173
STARLINK-37269          
1 68621U 26073V   26188.48655992  .00021880  00000+0  67684-3 0  9996
2 68621  97.2862  27.5457 0002173  80.6210 279.5278 15.33502312 14245
STARLINK-37252          
1 68622U 26073W   26188.48930039  .00014171  00000+0  44068-3 0  9991
2 68622  97.2874  27.5447 0001323  83.8953 276.2440 15.33427360 14247
STARLINK-37284          
1 68623U 26073X   26188.49472612  .00013219  00000+0  41111-3 0  9999
2 68623  97.2869  27.5398 0001576  97.4107 262.7315 15.33440432 14245
STARLINK-37231          
1 68624U 26073Y   26187.56483374  .00013996  00000+0  43543-3 0  9997
2 68624  97.2859  26.6575 0001706  91.3272 268.8166 15.33415680 14106
STARLINK-37249          
1 68625U 26073Z   26188.00259685  .00013186  00000+0  41036-3 0  9990
2 68625  97.2868  27.1354 0001519  96.8698 263.2718 15.33419653 14175
STARLINK-37285          
1 68626U 26073AA  26187.52824581  .00021786  00000+0  67585-3 0  9992
2 68626  97.2868  27.4699 0001401  90.0790 270.0613 15.33415289 14159
STP-S29A OBJECT A       
1 68627U 26074A   26188.26869121  .00006415  00000+0  26667-3 0  9993
2 68627  60.0171 101.3427 0030697  33.7875 326.5154 15.24540546 13840
MISR-C-1                
1 68628U 26074B   26188.19562029  .00007995  00000+0  32860-3 0  9999
2 68628  60.0218 101.6148 0029159  34.8427 325.4555 15.24657846 13825
RAWHIDE-1               
1 68629U 26074C   26188.16957228  .00000900  00000+0  47511-4 0  9995
2 68629  60.0205 101.4640 0032973  38.8638 321.4805 15.24634346 13838
STPSAT-7                
1 68630U 26074D   26187.96979622  .00005505  00000+0  22838-3 0  9996
2 68630  60.0214 102.2087 0031066  41.4643 318.8787 15.24849660 13793
STP-S29A OBJECT E       
1 68631U 26074E   26188.23578184  .00003961  00000+0  16829-3 0  9993
2 68631  60.0207 101.2130 0031684  41.9440 318.4059 15.24711220 13844
RAWHIDE-2               
1 68632U 26074F   26188.25228588  .00001881  00000+0  84573-4 0  9997
2 68632  60.0300 100.8195 0031548  43.4976 316.8585 15.25361733 13842
MISR-C-2                
1 68633U 26074G   26188.28968449  .00009399  00000+0  36320-3 0  9996
2 68633  60.0216 100.3199 0031914  47.8542 312.5243 15.26459098 13850
AGGIESAT6 (AGS6)        
1 68634U 26074H   26188.13788607  .00007374  00000+0  28444-3 0  9996
2 68634  60.0203 100.7074 0032269  50.0864 310.3045 15.26803391 13844
CANVAS                  
1 68635U 26074J   26188.27639449  .00009898  00000+0  39023-3 0  9999
2 68635  60.0229 100.8571 0032865  40.6734 319.6792 15.25707174 13852
QIANFAN-109             
1 68636U 26075A   26188.58450966  .00000094  00000+0  12735-3 0  9990
2 68636  88.9910 318.9283 0002037 116.4863 243.6498 13.51013356 12547
QIANFAN-110             
1 68637U 26075B   26188.51864979  .00000084  00000+0  11193-3 0  9993
2 68637  88.9910 318.9564 0001997 101.1244 259.0132 13.51014566 12537
